[{"OBJECT_NAME":"STARLINK-4725","OBJECT_ID":"2022-107A","EPOCH":"2026-03-09T17:16:22.903392","MEAN_MOTION":15.08842407,"ECCENTRICITY":0.00014576,"INCLINATION":53.2172,"RA_OF_ASC_NODE":243.6159,"ARG_OF_PERICENTER":96.6204,"MEAN_ANOMALY":263.4955,"EPHEMERIS_TYPE":0,"CLASSIFICATION_TYPE":"U","NORAD_CAT_ID":53700,"ELEMENT_SET_NO":999,"REV_AT_EPOCH":19486,"BSTAR":-2.5935289e-5,"MEAN_MOTION_DOT":-7.01e-6,"MEAN_MOTION_DDOT":0},{"OBJECT_NAME":"CZ-6A DEB","OBJECT_ID":"2024-140FV","EPOCH":"2026-03-09T14:13:09.917760","MEAN_MOTION":15.12617909,"ECCENTRICITY":0.0033796,"INCLINATION":89.006,"RA_OF_ASC_NODE":281.0752,"ARG_OF_PERICENTER":172.4402,"MEAN_ANOMALY":187.7356,"EPHEMERIS_TYPE":0,"CLASSIFICATION_TYPE":"U","NORAD_CAT_ID":60794,"ELEMENT_SET_NO":999,"REV_AT_EPOCH":8371,"BSTAR":0.0056743,"MEAN_MOTION_DOT":0.0010168,"MEAN_MOTION_DDOT":0}]
